<?xml version="1.0" encoding="UTF-8"?>
<ndm xmlns:xsi="http://www.w3.org/2001/XMLSchema-instance" xsi:noNamespaceSchemaLocation="https://sanaregistry.org/r/ndmxml_unqualified/ndmxml-2.0.0-master-2.0.xsd">
<omm id="CCSDS_OMM_VERS" version="2.0">
<header><CREATION_DATE/><ORIGINATOR/></header><body><segment><metadata><OBJECT_NAME>QIANFAN-9</OBJECT_NAME><OBJECT_ID>2024-140J</OBJECT_ID><CENTER_NAME>EARTH</CENTER_NAME><REF_FRAME>TEME</REF_FRAME><TIME_SYSTEM>UTC</TIME_SYSTEM><MEAN_ELEMENT_THEORY>SGP4</MEAN_ELEMENT_THEORY></metadata><data><meanElements><EPOCH>2025-09-30T08:39:12.557664</EPOCH><MEAN_MOTION>13.50972145</MEAN_MOTION><ECCENTRICITY>.00178792</ECCENTRICITY><INCLINATION>88.9769</INCLINATION><RA_OF_ASC_NODE>306.9424</RA_OF_ASC_NODE><ARG_OF_PERICENTER>54.9479</ARG_OF_PERICENTER><MEAN_ANOMALY>305.3346</MEAN_ANOMALY></meanElements><tleParameters><EPHEMERIS_TYPE>0</EPHEMERIS_TYPE><CLASSIFICATION_TYPE>U</CLASSIFICATION_TYPE><NORAD_CAT_ID>60387</NORAD_CAT_ID><ELEMENT_SET_NO>999</ELEMENT_SET_NO><REV_AT_EPOCH>5742</REV_AT_EPOCH><BSTAR>.13354649E-3</BSTAR><MEAN_MOTION_DOT>.98E-6</MEAN_MOTION_DOT><MEAN_MOTION_DDOT>0</MEAN_MOTION_DDOT></tleParameters></data></segment></body></omm>
<omm id="CCSDS_OMM_VERS" version="2.0">
<header><CREATION_DATE/><ORIGINATOR/></header><body><segment><metadata><OBJECT_NAME>QIANFAN-10</OBJECT_NAME><OBJECT_ID>2024-140K</OBJECT_ID><CENTER_NAME>EARTH</CENTER_NAME><REF_FRAME>TEME</REF_FRAME><TIME_SYSTEM>UTC</TIME_SYSTEM><MEAN_ELEMENT_THEORY>SGP4</MEAN_ELEMENT_THEORY></metadata><data><meanElements><EPOCH>2025-09-30T06:58:29.508384</EPOCH><MEAN_MOTION>13.50969223</MEAN_MOTION><ECCENTRICITY>.00156866</ECCENTRICITY><INCLINATION>88.9777</INCLINATION><RA_OF_ASC_NODE>306.2899</RA_OF_ASC_NODE><ARG_OF_PERICENTER>34.9110</ARG_OF_PERICENTER><MEAN_ANOMALY>325.3066</MEAN_ANOMALY></meanElements><tleParameters><EPHEMERIS_TYPE>0</EPHEMERIS_TYPE><CLASSIFICATION_TYPE>U</CLASSIFICATION_TYPE><NORAD_CAT_ID>60388</NORAD_CAT_ID><ELEMENT_SET_NO>999</ELEMENT_SET_NO><REV_AT_EPOCH>5754</REV_AT_EPOCH><BSTAR>.10634271E-3</BSTAR><MEAN_MOTION_DOT>.81E-6</MEAN_MOTION_DOT><MEAN_MOTION_DDOT>0</MEAN_MOTION_DDOT></tleParameters></data></segment></body></omm>
<omm id="CCSDS_OMM_VERS" version="2.0">
<header><CREATION_DATE/><ORIGINATOR/></header><body><segment><metadata><OBJECT_NAME>QIANFAN-11</OBJECT_NAME><OBJECT_ID>2024-140L</OBJECT_ID><CENTER_NAME>EARTH</CENTER_NAME><REF_FRAME>TEME</REF_FRAME><TIME_SYSTEM>UTC</TIME_SYSTEM><MEAN_ELEMENT_THEORY>SGP4</MEAN_ELEMENT_THEORY></metadata><data><meanElements><EPOCH>2025-09-30T07:51:45.612864</EPOCH><MEAN_MOTION>13.50969806</MEAN_MOTION><ECCENTRICITY>.00159115</ECCENTRICITY><INCLINATION>88.9705</INCLINATION><RA_OF_ASC_NODE>306.9279</RA_OF_ASC_NODE><ARG_OF_PERICENTER>55.4099</ARG_OF_PERICENTER><MEAN_ANOMALY>304.8551</MEAN_ANOMALY></meanElements><tleParameters><EPHEMERIS_TYPE>0</EPHEMERIS_TYPE><CLASSIFICATION_TYPE>U</CLASSIFICATION_TYPE><NORAD_CAT_ID>60389</NORAD_CAT_ID><ELEMENT_SET_NO>999</ELEMENT_SET_NO><REV_AT_EPOCH>5720</REV_AT_EPOCH><BSTAR>.1079505E-3</BSTAR><MEAN_MOTION_DOT>.82E-6</MEAN_MOTION_DOT><MEAN_MOTION_DDOT>0</MEAN_MOTION_DDOT></tleParameters></data></segment></body></omm>
<omm id="CCSDS_OMM_VERS" version="2.0">
<header><CREATION_DATE/><ORIGINATOR/></header><body><segment><metadata><OBJECT_NAME>QIANFAN-12</OBJECT_NAME><OBJECT_ID>2024-140M</OBJECT_ID><CENTER_NAME>EARTH</CENTER_NAME><REF_FRAME>TEME</REF_FRAME><TIME_SYSTEM>UTC</TIME_SYSTEM><MEAN_ELEMENT_THEORY>SGP4</MEAN_ELEMENT_THEORY></metadata><data><meanElements><EPOCH>2025-09-30T08:21:18.813024</EPOCH><MEAN_MOTION>13.50969929</MEAN_MOTION><ECCENTRICITY>.00149217</ECCENTRICITY><INCLINATION>88.9748</INCLINATION><RA_OF_ASC_NODE>306.9371</RA_OF_ASC_NODE><ARG_OF_PERICENTER>63.0500</ARG_OF_PERICENTER><MEAN_ANOMALY>297.2173</MEAN_ANOMALY></meanElements><tleParameters><EPHEMERIS_TYPE>0</EPHEMERIS_TYPE><CLASSIFICATION_TYPE>U</CLASSIFICATION_TYPE><NORAD_CAT_ID>60390</NORAD_CAT_ID><ELEMENT_SET_NO>999</ELEMENT_SET_NO><REV_AT_EPOCH>5733</REV_AT_EPOCH><BSTAR>.14206093E-3</BSTAR><MEAN_MOTION_DOT>.104E-5</MEAN_MOTION_DOT><MEAN_MOTION_DDOT>0</MEAN_MOTION_DDOT></tleParameters></data></segment></body></omm>
<omm id="CCSDS_OMM_VERS" version="2.0">
<header><CREATION_DATE/><ORIGINATOR/></header><body><segment><metadata><OBJECT_NAME>QIANFAN-13</OBJECT_NAME><OBJECT_ID>2024-140N</OBJECT_ID><CENTER_NAME>EARTH</CENTER_NAME><REF_FRAME>TEME</REF_FRAME><TIME_SYSTEM>UTC</TIME_SYSTEM><MEAN_ELEMENT_THEORY>SGP4</MEAN_ELEMENT_THEORY></metadata><data><meanElements><EPOCH>2025-09-30T07:39:51.945408</EPOCH><MEAN_MOTION>13.50970037</MEAN_MOTION><ECCENTRICITY>.00147997</ECCENTRICITY><INCLINATION>88.9761</INCLINATION><RA_OF_ASC_NODE>307.0309</RA_OF_ASC_NODE><ARG_OF_PERICENTER>65.5266</ARG_OF_PERICENTER><MEAN_ANOMALY>294.7427</MEAN_ANOMALY></meanElements><tleParameters><EPHEMERIS_TYPE>0</EPHEMERIS_TYPE><CLASSIFICATION_TYPE>U</CLASSIFICATION_TYPE><NORAD_CAT_ID>60391</NORAD_CAT_ID><ELEMENT_SET_NO>999</ELEMENT_SET_NO><REV_AT_EPOCH>5735</REV_AT_EPOCH><BSTAR>.1272943E-3</BSTAR><MEAN_MOTION_DOT>.94E-6</MEAN_MOTION_DOT><MEAN_MOTION_DDOT>0</MEAN_MOTION_DDOT></tleParameters></data></segment></body></omm>
<omm id="CCSDS_OMM_VERS" version="2.0">
<header><CREATION_DATE/><ORIGINATOR/></header><body><segment><metadata><OBJECT_NAME>QIANFAN-14</OBJECT_NAME><OBJECT_ID>2024-140P</OBJECT_ID><CENTER_NAME>EARTH</CENTER_NAME><REF_FRAME>TEME</REF_FRAME><TIME_SYSTEM>UTC</TIME_SYSTEM><MEAN_ELEMENT_THEORY>SGP4</MEAN_ELEMENT_THEORY></metadata><data><meanElements><EPOCH>2025-09-30T06:28:39.022176</EPOCH><MEAN_MOTION>13.50970753</MEAN_MOTION><ECCENTRICITY>.00184731</ECCENTRICITY><INCLINATION>88.9739</INCLINATION><RA_OF_ASC_NODE>306.9494</RA_OF_ASC_NODE><ARG_OF_PERICENTER>64.5931</ARG_OF_PERICENTER><MEAN_ANOMALY>295.7129</MEAN_ANOMALY></meanElements><tleParameters><EPHEMERIS_TYPE>0</EPHEMERIS_TYPE><CLASSIFICATION_TYPE>U</CLASSIFICATION_TYPE><NORAD_CAT_ID>60392</NORAD_CAT_ID><ELEMENT_SET_NO>999</ELEMENT_SET_NO><REV_AT_EPOCH>5735</REV_AT_EPOCH><BSTAR>.13155181E-3</BSTAR><MEAN_MOTION_DOT>.97E-6</MEAN_MOTION_DOT><MEAN_MOTION_DDOT>0</MEAN_MOTION_DDOT></tleParameters></data></segment></body></omm>
<omm id="CCSDS_OMM_VERS" version="2.0">
<header><CREATION_DATE/><ORIGINATOR/></header><body><segment><metadata><OBJECT_NAME>QIANFAN-15</OBJECT_NAME><OBJECT_ID>2024-140Q</OBJECT_ID><CENTER_NAME>EARTH</CENTER_NAME><REF_FRAME>TEME</REF_FRAME><TIME_SYSTEM>UTC</TIME_SYSTEM><MEAN_ELEMENT_THEORY>SGP4</MEAN_ELEMENT_THEORY></metadata><data><meanElements><EPOCH>2025-09-30T08:27:11.655072</EPOCH><MEAN_MOTION>13.50974356</MEAN_MOTION><ECCENTRICITY>.00139686</ECCENTRICITY><INCLINATION>88.9762</INCLINATION><RA_OF_ASC_NODE>306.8799</RA_OF_ASC_NODE><ARG_OF_PERICENTER>53.4986</ARG_OF_PERICENTER><MEAN_ANOMALY>306.7449</MEAN_ANOMALY></meanElements><tleParameters><EPHEMERIS_TYPE>0</EPHEMERIS_TYPE><CLASSIFICATION_TYPE>U</CLASSIFICATION_TYPE><NORAD_CAT_ID>60393</NORAD_CAT_ID><ELEMENT_SET_NO>999</ELEMENT_SET_NO><REV_AT_EPOCH>5735</REV_AT_EPOCH><BSTAR>.1440317E-3</BSTAR><MEAN_MOTION_DOT>.105E-5</MEAN_MOTION_DOT><MEAN_MOTION_DDOT>0</MEAN_MOTION_DDOT></tleParameters></data></segment></body></omm>
<omm id="CCSDS_OMM_VERS" version="2.0">
<header><CREATION_DATE/><ORIGINATOR/></header><body><segment><metadata><OBJECT_NAME>QIANFAN-16</OBJECT_NAME><OBJECT_ID>2024-140R</OBJECT_ID><CENTER_NAME>EARTH</CENTER_NAME><REF_FRAME>TEME</REF_FRAME><TIME_SYSTEM>UTC</TIME_SYSTEM><MEAN_ELEMENT_THEORY>SGP4</MEAN_ELEMENT_THEORY></metadata><data><meanElements><EPOCH>2025-09-30T06:22:55.646976</EPOCH><MEAN_MOTION>13.50969807</MEAN_MOTION><ECCENTRICITY>.00164893</ECCENTRICITY><INCLINATION>88.9766</INCLINATION><RA_OF_ASC_NODE>307.0068</RA_OF_ASC_NODE><ARG_OF_PERICENTER>68.5317</ARG_OF_PERICENTER><MEAN_ANOMALY>291.7591</MEAN_ANOMALY></meanElements><tleParameters><EPHEMERIS_TYPE>0</EPHEMERIS_TYPE><CLASSIFICATION_TYPE>U</CLASSIFICATION_TYPE><NORAD_CAT_ID>60394</NORAD_CAT_ID><ELEMENT_SET_NO>999</ELEMENT_SET_NO><REV_AT_EPOCH>5725</REV_AT_EPOCH><BSTAR>.12394358E-3</BSTAR><MEAN_MOTION_DOT>.92E-6</MEAN_MOTION_DOT><MEAN_MOTION_DDOT>0</MEAN_MOTION_DDOT></tleParameters></data></segment></body></omm>

</ndm>
