QIANFAN-9               
1 60387U 24140J   25273.36056201  .00000098  00000+0  13355-3 0  9993
2 60387  88.9769 306.9424 0017879  54.9479 305.3346 13.50972145 57420
QIANFAN-10              
1 60388U 24140K   25273.29061931  .00000081  00000+0  10634-3 0  9991
2 60388  88.9777 306.2899 0015686  34.9110 325.3066 13.50969223 57540
QIANFAN-11              
1 60389U 24140L   25273.32761126  .00000082  00000+0  10795-3 0  9998
2 60389  88.9705 306.9279 0015911  55.4099 304.8551 13.50969806 57207
QIANFAN-12              
1 60390U 24140M   25273.34813441  .00000104  00000+0  14206-3 0  9996
2 60390  88.9748 306.9371 0014921  63.0500 297.2173 13.50969929 57336
QIANFAN-13              
1 60391U 24140N   25273.31935122  .00000094  00000+0  12729-3 0  9991
2 60391  88.9761 307.0309 0014799  65.5266 294.7427 13.50970037 57352
QIANFAN-14              
1 60392U 24140P   25273.26989609  .00000097  00000+0  13155-3 0  9992
2 60392  88.9739 306.9494 0018473  64.5931 295.7129 13.50970753 57357
QIANFAN-15              
1 60393U 24140Q   25273.35221823  .00000105  00000+0  14403-3 0  9997
2 60393  88.9762 306.8799 0013968  53.4986 306.7449 13.50974356 57353
QIANFAN-16              
1 60394U 24140R   25273.26592184  .00000092  00000+0  12394-3 0  9991
2 60394  88.9766 307.0068 0016489  68.5317 291.7591 13.50969807 57251
